[{"OBJECT_NAME":"JILIN-1 08","OBJECT_ID":"2018-008F","EPOCH":"2026-03-09T22:37:53.184288","MEAN_MOTION":15.32205976,"ECCENTRICITY":0.00081321,"INCLINATION":97.1902,"RA_OF_ASC_NODE":90.9961,"ARG_OF_PERICENTER":76.0646,"MEAN_ANOMALY":284.15,"EPHEMERIS_TYPE":0,"CLASSIFICATION_TYPE":"U","NORAD_CAT_ID":43160,"ELEMENT_SET_NO":999,"REV_AT_EPOCH":44974,"BSTAR":0.00036689195,"MEAN_MOTION_DOT":0.00011349,"MEAN_MOTION_DDOT":0},{"OBJECT_NAME":"STARLINK-30296","OBJECT_ID":"2023-124J","EPOCH":"2026-03-09T14:54:27.694368","MEAN_MOTION":15.3018753,"ECCENTRICITY":0.0001161,"INCLINATION":53.1616,"RA_OF_ASC_NODE":207.3307,"ARG_OF_PERICENTER":99.8849,"MEAN_ANOMALY":260.2283,"EPHEMERIS_TYPE":0,"CLASSIFICATION_TYPE":"U","NORAD_CAT_ID":57671,"ELEMENT_SET_NO":999,"REV_AT_EPOCH":14355,"BSTAR":-1.0046e-5,"MEAN_MOTION_DOT":-6.56e-6,"MEAN_MOTION_DDOT":0}]
